OBJECT_NAME,OBJECT_ID,EPOCH,MEAN_MOTION,ECCENTRICITY,INCLINATION,RA_OF_ASC_NODE,ARG_OF_PERICENTER,MEAN_ANOMALY,EPHEMERIS_TYPE,CLASSIFICATION_TYPE,NORAD_CAT_ID,ELEMENT_SET_NO,REV_AT_EPOCH,BSTAR,MEAN_MOTION_DOT,MEAN_MOTION_DDOT
CARTOSAT-2E,2017-036C,2024-08-14T13:59:41.532576,15.19217313,.0004961,97.4334,286.0554,135.1305,346.7511,0,U,42767,999,39617,.11502E-2,.24219E-3,0
CE-SAT-I,2017-036E,2024-08-13T20:26:12.401088,15.46307131,.0009027,97.1242,245.3225,48.6960,311.5066,0,U,42769,999,39727,.90113E-3,.44589E-3,0
AALTO-1,2017-036L,2024-08-14T14:20:08.138688,15.91701478,.0003048,97.0914,258.7080,204.4763,155.6368,0,U,42775,999,39831,.14825E-2,.479601E-2,.90753E-4
BULGARIASAT-1,2017-038A,2024-08-14T06:10:22.059264,1.00274056,.0002553,0.0160,89.6114,63.0813,264.9828,0,U,42801,999,2609,0,.21E-6,0
IRIDIUM 113,2017-039A,2024-08-14T13:53:31.073568,14.34217575,.0002554,86.3933,242.7729,89.1235,271.0253,0,U,42803,999,37492,.46872E-4,.151E-5,0
IRIDIUM 123,2017-039B,2024-08-14T09:51:50.201280,14.34221594,.0002327,86.3933,274.3523,90.8528,269.2935,0,U,42804,999,37366,.11758E-3,.349E-5,0
IRIDIUM 120,2017-039C,2024-08-14T13:44:22.748064,14.34219441,.0002215,86.3923,242.6451,90.6721,269.4729,0,U,42805,999,37491,.75591E-4,.231E-5,0
IRIDIUM 115,2017-039D,2024-08-14T13:55:12.460512,14.43277042,.0002693,86.4461,242.6751,88.9751,271.1759,0,U,42806,999,37739,.79772E-4,.289E-5,0
IRIDIUM 118,2017-039E,2024-08-14T13:58:26.368896,14.34221565,.0002242,86.3934,274.2817,94.7900,265.3551,0,U,42807,999,37368,.2156E-3,.624E-5,0
IRIDIUM 117,2017-039F,2024-08-14T14:25:50.575584,14.34218599,.0002507,86.3933,274.2374,90.5888,269.5595,0,U,42808,999,37371,.98461E-4,.296E-5,0
IRIDIUM 126,2017-039G,2024-08-14T13:21:54.266112,14.34223069,.000241,86.3932,274.2963,92.8833,267.2638,0,U,42809,999,37369,.28189E-3,.809E-5,0
IRIDIUM 124,2017-039H,2024-08-14T10:40:03.720864,14.43288795,.00022,86.4503,211.0862,82.9596,277.1855,0,U,42810,999,37822,.22191E-3,.767E-5,0
IRIDIUM 128,2017-039J,2024-08-14T11:28:06.030048,14.34222033,.0002277,86.3981,305.8698,88.0278,272.1178,0,U,42811,999,37370,.187E-3,.544E-5,0
IRIDIUM 121,2017-039K,2024-08-14T13:49:18.521184,14.34220178,.0002251,86.3934,274.3114,89.4160,270.7294,0,U,42812,999,37356,.87865E-4,.266E-5,0
HELLAS-SAT 3,2017-040A,2024-08-14T13:13:03.665568,1.00271632,.0002675,0.0678,36.5806,54.9899,109.1352,0,U,42814,999,2607,0,.161E-5,0
GSAT-17,2017-040B,2024-08-14T06:42:42.640416,1.00270309,.0002696,0.0317,92.8401,146.3500,278.1515,0,U,42815,999,2605,0,-.248E-5,0
INTELSAT 35E (IS-35E),2017-041A,2024-08-14T11:09:00.097344,1.00273404,.0001466,0.0113,113.6686,27.1235,315.3148,0,U,42818,999,2608,0,-.229E-5,0
KANOPUS-V-IK,2017-042A,2024-08-13T20:12:45.459648,15.22374046,.0002138,97.3908,133.6364,98.9770,261.1708,0,U,42825,999,39305,.40717E-3,.9335E-4,0
NORSAT 1,2017-042B,2024-08-14T10:48:35.092224,15.00142042,.0009727,97.3878,47.2836,217.0809,142.9745,0,U,42826,999,38599,.143E-2,.17844E-3,0
NORSAT 2,2017-042D,2024-08-14T11:42:05.131296,15.02573840,.0013591,97.3806,50.8399,210.2944,149.7498,0,U,42828,999,38617,.11288E-2,.15011E-3,0
TECHNOSAT,2017-042E,2024-08-14T11:21:03.275712,14.97248621,.0011224,97.3872,45.3049,235.0338,124.9832,0,U,42829,999,38589,.67942E-3,.7828E-4,0
FLYING LAPTOP,2017-042G,2024-08-13T20:43:47.925696,14.95559270,.0011242,97.3898,44.4868,239.3234,120.6881,0,U,42831,999,38575,.61117E-3,.6736E-4,0
WNISAT 1R,2017-042L,2024-08-14T11:36:20.635488,14.95787693,.0011054,97.3867,44.9409,234.8975,125.1211,0,U,42835,999,38587,.53091E-3,.5878E-4,0
LEMUR-2-GREENBERG,2017-042N,2024-08-14T11:37:06.208032,15.05987370,.0014759,97.3633,53.4940,189.3739,170.7215,0,U,42837,999,38641,.15733E-2,.22976E-3,0
LEMUR-2-ANDIS,2017-042P,2024-08-14T12:42:19.634688,15.05571623,.0016202,97.3643,53.2483,196.3012,163.7696,0,U,42838,999,38641,.15414E-2,.22268E-3,0
LEMUR-2-MONSON,2017-042Q,2024-08-14T13:51:45.168768,15.04610555,.0011248,97.3971,53.4033,171.0760,189.0668,0,U,42839,999,38636,.13749E-2,.19314E-3,0
LEMUR-2-FURIAUS,2017-042R,2024-08-14T11:17:17.646432,15.04612370,.0012471,97.3660,53.1561,241.4499,118.5473,0,U,42840,999,38634,.17274E-2,.24307E-3,0
LEMUR-2-PETERG,2017-042S,2024-08-14T12:38:52.242720,15.05371631,.0006699,97.3944,55.2469,166.2324,193.9087,0,U,42841,999,38643,.14525E-2,.20814E-3,0
LEMUR-2-DEMBITZ,2017-042T,2024-08-14T11:00:43.813152,15.04987720,.0011207,97.3821,54.8352,194.8291,165.2609,0,U,42842,999,38644,.16884E-2,.23988E-3,0
NANOACE,2017-042V,2024-08-14T10:55:18.749568,15.03866211,.000684,97.3571,52.2346,183.1287,176.9898,0,U,42844,999,38638,.16481E-2,.227E-3,0
LEMUR-2-ZACHARY,2017-042W,2024-08-14T11:48:17.447040,15.09647865,.0007262,97.3763,55.7990,230.4990,129.5598,0,U,42845,999,38665,.15323E-2,.24675E-3,0
CORVUS BC2,2017-042X,2024-08-14T12:05:01.878144,14.98369588,.0007791,97.3748,49.3833,216.1147,143.9551,0,U,42846,999,38617,.71921E-3,.8529E-4,0
CORVUS BC1,2017-042Y,2024-08-14T11:00:18.867744,14.98527289,.0006982,97.3752,49.7501,206.4426,153.6442,0,U,42847,999,38618,.93259E-3,.11124E-3,0
VENUS,2017-044B,2024-08-13T20:57:55.772352,15.01536394,.000415,97.3729,283.0806,120.7558,239.4077,0,U,42901,999,37954,.10602E-2,.13689E-3,0
COSMOS 2520,2017-046A,2024-08-13T11:29:24.171072,1.00275051,.0000759,0.0251,108.3564,108.1402,323.2461,0,U,42907,999,2565,0,.147E-5,0
TDRS 13,2017-047A,2024-08-14T06:06:28.977120,1.00272290,.0017215,3.5975,345.8459,123.7897,293.7228,0,U,42915,999,2561,0,-.84E-6,0
QZS-3 (MICHIBIKI-3),2017-048A,2024-08-14T13:37:34.972032,1.00263437,.0001503,0.0830,230.6337,285.4134,138.7501,0,U,42917,999,2552,0,-.34E-5,0
FORMOSAT-5,2017-049A,2024-08-13T20:16:15.739104,14.50649803,.0011976,98.2885,303.7334,354.3929,5.7129,0,U,42920,999,36918,.31671E-3,.12E-4,0
ORS-5 SENSORSAT,2017-050A,2024-08-14T12:35:19.801536,14.96046057,.0011285,0.0485,94.9728,156.3609,108.5438,0,U,42921,999,38063,.55569E-3,.7226E-4,0
AMAZONAS 5,2017-053A,2024-08-06T22:44:00.026592,1.00270813,.0000928,0.0462,297.6053,209.5246,88.8020,0,U,42934,999,2523,0,-.286E-5,0
COSMOS 2522 [GLONASS-M],2017-055A,2024-08-13T04:55:59.246112,2.13102004,.0010264,64.0840,214.8167,241.8331,118.0780,0,U,42939,999,5363,0,.105E-5,0
ASIASAT 9,2017-057A,2024-08-13T01:40:42.535200,1.00272059,.0001969,0.0168,95.6902,36.2692,337.2994,0,U,42942,999,2511,0,-.349E-5,0
YAOGAN-30 02A,2017-058A,2024-08-13T20:43:56.627904,14.95880862,.0002937,34.9967,150.4087,5.6462,354.4277,0,U,42945,999,37487,.86597E-3,.9858E-4,0
YAOGAN-30 02B,2017-058B,2024-08-13T21:16:55.372800,14.95883827,.0002856,34.9968,150.5752,246.5277,113.5129,0,U,42946,999,37485,.83237E-3,.9475E-4,0
YAOGAN-30 02C,2017-058C,2024-08-13T20:31:25.798944,14.96497342,.0004489,34.9964,149.3500,85.3214,274.8005,0,U,42947,999,37472,.99163E-3,.11478E-3,0
INTELSAT 37E (IS-37E),2017-059A,2024-08-14T10:50:54.101184,1.00271784,.0003163,0.0153,100.6306,54.9024,312.5500,0,U,42950,999,2533,0,-.131E-5,0
BSAT-4A,2017-059B,2024-08-14T06:41:19.190976,1.00271970,.0002845,0.0313,27.1603,67.7328,78.4612,0,U,42951,999,2506,0,-.341E-5,0
VRSS-2,2017-060A,2024-08-13T20:48:43.070688,14.78731809,.0019216,97.7498,280.9606,131.0162,229.2715,0,U,42954,999,36899,.60403E-3,.4399E-4,0
IRIDIUM 133,2017-061A,2024-08-14T13:54:14.239872,14.34217981,.0002326,86.3983,305.9285,94.7860,265.3601,0,U,42955,999,35851,.12761E-4,.56E-6,0
IRIDIUM 100,2017-061B,2024-08-14T12:04:38.144928,14.34220538,.0002248,86.3978,305.8945,93.1152,267.0301,0,U,42956,999,35852,.3987E-3,.1137E-4,0
IRIDIUM 122,2017-061C,2024-08-14T14:39:53.868960,14.34223449,.0002364,86.3977,305.8480,91.7904,268.3563,0,U,42957,999,35852,.50888E-4,.162E-5,0
IRIDIUM 129,2017-061D,2024-08-14T11:55:29.955072,14.34223081,.0002547,86.3982,305.9555,93.3210,266.8277,0,U,42958,999,35852,-.29608E-5,.11E-6,0
IRIDIUM 119,2017-061E,2024-08-14T14:30:45.428544,14.34222015,.0002434,86.3982,305.9034,90.0446,270.1028,0,U,42959,999,35855,.44703E-4,.145E-5,0
IRIDIUM 107,2017-061F,2024-08-14T11:37:14.008224,14.34220228,.0002219,86.3982,305.9708,90.6685,269.4765,0,U,42960,999,35854,.90462E-4,.273E-5,0
IRIDIUM 132,2017-061G,2024-08-14T11:46:21.887040,14.34221090,.0002045,86.3979,305.9522,88.0056,272.1374,0,U,42961,999,35854,.23587E-3,.68E-5,0
IRIDIUM 136,2017-061H,2024-08-14T14:12:30.297312,14.34217563,.0002518,86.3981,305.9134,91.8437,268.3047,0,U,42962,999,35857,.43273E-5,.32E-6,0
IRIDIUM 139,2017-061J,2024-08-14T11:00:42.155136,14.34221196,.0002497,86.3983,306.0201,86.7170,273.4311,0,U,42963,999,35856,.11589E-3,.344E-5,0
IRIDIUM 125,2017-061K,2024-08-14T14:03:21.534624,14.34225861,.0002649,86.3990,306.0160,86.1623,273.9875,0,U,42964,999,35859,.59172E-6,.21E-6,0
QZS-4 (MICHIBIKI-4),2017-062A,2024-08-13T05:02:20.442048,1.00286662,.0747996,40.4896,352.0717,268.9520,276.0792,0,U,42965,999,2506,0,-.31E-5,0
SES-11 (ECHOSTAR 105),2017-063A,2024-08-14T14:23:01.654944,1.00271241,.0002191,0.0113,39.1194,98.3829,296.8128,0,U,42967,999,2498,0,-.8E-6,0
SENTINEL-5P,2017-064A,2024-08-14T13:08:01.507488,14.19562462,.0001096,98.7220,165.8741,92.4707,267.6594,0,U,42969,999,35427,.21726E-3,.415E-5,0
KOREASAT 5A,2017-067A,2024-08-14T15:19:35.605920,1.00269043,.0001023,0.0098,52.1326,86.6620,167.7943,0,U,42984,999,2479,0,-.35E-5,0
COSMOS 2523,2017-037E,2024-08-13T20:52:54.153408,14.91024412,.0071517,97.5537,257.6964,321.1752,38.4340,0,U,42986,999,36860,.60313E-3,.6209E-4,0
SKYSAT-C11,2017-068A,2024-08-14T14:54:39.901824,15.42697590,.0003418,97.3634,354.3725,97.3520,262.8116,0,U,42987,999,37964,.8646E-3,.37774E-3,0
SKYSAT-C10,2017-068B,2024-08-14T15:15:25.096032,15.30734533,.0007615,97.3717,353.2224,74.8396,285.3687,0,U,42988,999,37953,.87775E-3,.2608E-3,0
SKYSAT-C9,2017-068C,2024-08-14T07:32:51.279360,15.30700398,.0013688,97.3649,351.2989,100.6826,259.5957,0,U,42989,999,37967,.11163E-2,.33249E-3,0
SKYSAT-C8,2017-068D,2024-08-14T07:54:35.146080,15.30779573,.0002388,97.3742,352.3946,53.0699,307.0761,0,U,42990,999,37943,.10874E-2,.32375E-3,0
SKYSAT-C7,2017-068E,2024-08-14T14:43:36.603840,15.30804438,.0001005,97.3747,353.1029,169.0529,191.0734,0,U,42991,999,37950,.84793E-3,.25222E-3,0
